{"fetched_at":"2026-03-29T16:36:15Z","count":15609,"tles":[{"name":"STARLINK-34482","line1":"1 64782U 25147AD  26087.89214696  .00022628  00000+0  77387-3 0  9998","line2":"2 64782  53.1598 153.4143 0002839  88.7233 271.4093 15.30195734 41733","category":"Starlink"}]}