{
  "norad_id": 64782,
  "name": "STARLINK-34482",
  "history": [
    {
      "epoch": "2026-03-28T21:24:41.497344",
      "apogee_km": 477.1734772246582,
      "perigee_km": 473.2821366872695,
      "latitude_deg": -0.8351463202484308,
      "longitude_deg": 23.846108159981668,
      "semi_major_axis_km": 6853.364806955964,
      "eccentricity": 0.0002839,
      "inclination_deg": 53.1598,
      "raan_deg": 153.4143,
      "arg_perigee_deg": 88.7233,
      "mean_anomaly_deg": 271.4093,
      "mean_motion_rev_day": 15.30195734
    }
  ]
}